2025-313BD              
1 67299U 25313BD  26068.62968741  .00081010  00000+0  27634-2 0  9995
2 67299  97.3970 145.2850 0007287 333.4514  26.6352 15.30002360 10838
STARLINK-36534          
1 67496U 26012D   26068.06145940  .00028049  00000+0  10243-2 0  9998
2 67496  43.0005 318.1353 0001647 269.2852  90.7811 15.27601101  7661
